{
  "type": "FeatureCollection",
  "features": [
    {
      "type": "Feature",
      "properties": {
        "norad_id": 66955,
        "name": "HULIANWANG DIGUI-116",
        "group": "last-30-days",
        "lat": 40.65563895292922,
        "lon": -16.25385739126591,
        "alt_km": 1016.4601034149819,
        "timestamp": "2025-12-27T15:27:09.832417+00:00",
        "meta_object_name": "HULIANWANG DIGUI-116",
        "meta_object_id": "2025-287C",
        "meta_epoch": "2025-12-24T23:52:55.515936",
        "meta_mean_motion": 13.64194122,
        "meta_eccentricity": 0.00016332,
        "meta_inclination": 86.4919,
        "meta_ra_of_asc_node": 341.6856,
        "meta_arg_of_pericenter": 94.3011,
        "meta_mean_anomaly": 265.8333,
        "meta_ephemeris_type": 0,
        "meta_classification_type": "U",
        "meta_norad_cat_id": 66955,
        "meta_element_set_no": 999,
        "meta_rev_at_epoch": 220,
        "meta_bstar": 0.0001652864,
        "meta_mean_motion_dot": 1.48e-06,
        "meta_mean_motion_ddot": 0,
        "tle_line1": "1 66955U 25287C   25358.99508699  .00000148  00000+0  16529-3 0  9991",
        "tle_line2": "2 66955  86.4919 341.6856 0001633  94.3011 265.8333 13.64194122  2201"
      },
      "geometry": {
        "type": "Point",
        "coordinates": [
          -16.25385739126591,
          40.65563895292922
        ]
      }
    },
    {
      "type": "Feature",
      "properties": {
        "norad_id": 66956,
        "name": "HULIANWANG DIGUI-117",
        "group": "last-30-days",
        "lat": 58.276243333673825,
        "lon": -13.574753802943755,
        "alt_km": 1012.5898069737805,
        "timestamp": "2025-12-27T15:27:09.832427+00:00",
        "meta_object_name": "HULIANWANG DIGUI-117",
        "meta_object_id": "2025-287D",
        "meta_epoch": "2025-12-24T22:03:29.281824",
        "meta_mean_motion": 13.64670553,
        "meta_eccentricity": 0.00010447,
        "meta_inclination": 86.4976,
        "meta_ra_of_asc_node": 341.7257,
        "meta_arg_of_pericenter": 103.5815,
        "meta_mean_anomaly": 256.5458,
        "meta_ephemeris_type": 0,
        "meta_classification_type": "U",
        "meta_norad_cat_id": 66956,
        "meta_element_set_no": 999,
        "meta_rev_at_epoch": 219,
        "meta_bstar": 9.025962e-06,
        "meta_mean_motion_dot": 2.4e-07,
        "meta_mean_motion_ddot": 0,
        "tle_line1": "1 66956U 25287D   25358.91908891  .00000024  00000+0  90260-5 0  9991",
        "tle_line2": "2 66956  86.4976 341.7257 0001044 103.5815 256.5458 13.64670553  2192"
      },
      "geometry": {
        "type": "Point",
        "coordinates": [
          -13.574753802943755,
          58.276243333673825
        ]
      }
    },
    {
      "type": "Feature",
      "properties": {
        "norad_id": 66957,
        "name": "HULIANWANG DIGUI-118",
        "group": "last-30-days",
        "lat": 62.69898317116644,
        "lon": 153.90544951082114,
        "alt_km": 999.1467247926521,
        "timestamp": "2025-12-27T15:27:09.832437+00:00",
        "meta_object_name": "HULIANWANG DIGUI-118",
        "meta_object_id": "2025-287E",
        "meta_epoch": "2025-12-21T00:50:13.849728",
        "meta_mean_motion": 13.6751011,
        "meta_eccentricity": 0.00054729,
        "meta_inclination": 86.4946,
        "meta_ra_of_asc_node": 343.1304,
        "meta_arg_of_pericenter": 170.9065,
        "meta_mean_anomaly": 189.2194,
        "meta_ephemeris_type": 0,
        "meta_classification_type": "U",
        "meta_norad_cat_id": 66957,
        "meta_element_set_no": 999,
        "meta_rev_at_epoch": 166,
        "meta_bstar": 0.00013223305,
        "meta_mean_motion_dot": 1.28e-06,
        "meta_mean_motion_ddot": 0,
        "tle_line1": "1 66957U 25287E   25355.03488252  .00000128  00000+0  13223-3 0  9993",
        "tle_line2": "2 66957  86.4946 343.1304 0005472 170.9065 189.2194 13.67510110  1668"
      },
      "geometry": {
        "type": "Point",
        "coordinates": [
          153.90544951082114,
          62.69898317116644
        ]
      }
    },
    {
      "type": "Feature",
      "properties": {
        "norad_id": 66958,
        "name": "CZ-6A R/B",
        "group": "last-30-days",
        "lat": 74.16365928498486,
        "lon": 147.9992201338702,
        "alt_km": 851.8623513759467,
        "timestamp": "2025-12-27T15:27:09.832450+00:00",
        "meta_object_name": "CZ-6A R/B",
        "meta_object_id": "2025-287F",
        "meta_epoch": "2025-12-27T06:21:02.012832",
        "meta_mean_motion": 13.94921947,
        "meta_eccentricity": 0.01070347,
        "meta_inclination": 86.5067,
        "meta_ra_of_asc_node": 340.5789,
        "meta_arg_of_pericenter": 58.4888,
        "meta_mean_anomaly": 302.6688,
        "meta_ephemeris_type": 0,
        "meta_classification_type": "U",
        "meta_norad_cat_id": 66958,
        "meta_element_set_no": 999,
        "meta_rev_at_epoch": 256,
        "meta_bstar": 7.3967428e-05,
        "meta_mean_motion_dot": 1.23e-06,
        "meta_mean_motion_ddot": 0,
        "tle_line1": "1 66958U 25287F   25361.26460663  .00000123  00000+0  73967-4 0  9999",
        "tle_line2": "2 66958  86.5067 340.5789 0107034  58.4888 302.6688 13.94921947  2565"
      },
      "geometry": {
        "type": "Point",
        "coordinates": [
          147.9992201338702,
          74.16365928498486
        ]
      }
    },
    {
      "type": "Feature",
      "properties": {
        "norad_id": 66959,
        "name": "STARLINK-35887",
        "group": "last-30-days",
        "lat": 40.68807713027945,
        "lon": 144.00007432888734,
        "alt_km": 396.50520392820454,
        "timestamp": "2025-12-27T15:27:09.832463+00:00",
        "meta_object_name": "STARLINK-35887",
        "meta_object_id": "2025-288A",
        "meta_epoch": "2025-12-27T06:00:02.000160",
        "meta_mean_motion": 15.56819913,
        "meta_eccentricity": 0.00014495,
        "meta_inclination": 43.0001,
        "meta_ra_of_asc_node": 79.0057,
        "meta_arg_of_pericenter": 271.1004,
        "meta_mean_anomaly": 113.2075,
        "meta_ephemeris_type": 0,
        "meta_classification_type": "U",
        "meta_norad_cat_id": 66959,
        "meta_element_set_no": 999,
        "meta_rev_at_epoch": 416,
        "meta_bstar": -0.031108135,
        "meta_mean_motion_dot": -0.02045746,
        "meta_mean_motion_ddot": 0,
        "tle_line1": "1 66959U 25288A   25361.25002315 -.02045746  00000+0 -31108-1 0  9998",
        "tle_line2": "2 66959  43.0001  79.0057 0001449 271.1004 113.2075 15.56819913  4164"
      },
      "geometry": {
        "type": "Point",
        "coordinates": [
          144.00007432888734,
          40.68807713027945
        ]
      }
    },
    {
      "type": "Feature",
      "properties": {
        "norad_id": 66960,
        "name": "STARLINK-35879",
        "group": "last-30-days",
        "lat": 41.166099577361344,
        "lon": 146.45306202604664,
        "alt_km": 396.32196681466667,
        "timestamp": "2025-12-27T15:27:09.832473+00:00",
        "meta_object_name": "STARLINK-35879",
        "meta_object_id": "2025-288B",
        "meta_epoch": "2025-12-27T06:00:02.000160",
        "meta_mean_motion": 15.56808974,
        "meta_eccentricity": 0.00012667,
        "meta_inclination": 43,
        "meta_ra_of_asc_node": 79.001,
        "meta_arg_of_pericenter": 267.9765,
        "meta_mean_anomaly": 118.2509,
        "meta_ephemeris_type": 0,
        "meta_classification_type": "U",
        "meta_norad_cat_id": 66960,
        "meta_element_set_no": 999,
        "meta_rev_at_epoch": 416,
        "meta_bstar": -0.030785295,
        "meta_mean_motion_dot": -0.02025898,
        "meta_mean_motion_ddot": 0,
        "tle_line1": "1 66960U 25288B   25361.25002315 -.02025898  00000+0 -30785-1 0  9996",
        "tle_line2": "2 66960  43.0000  79.0010 0001266 267.9765 118.2509 15.56808974  4160"
      },
      "geometry": {
        "type": "Point",
        "coordinates": [
          146.45306202604664,
          41.166099577361344
        ]
      }
    },
    {
      "type": "Feature",
      "properties": {
        "norad_id": 66961,
        "name": "STARLINK-35761",
        "group": "last-30-days",
        "lat": 41.591692518306104,
        "lon": 148.94298262930909,
        "alt_km": 396.3033641439815,
        "timestamp": "2025-12-27T15:27:09.832484+00:00",
        "meta_object_name": "STARLINK-35761",
        "meta_object_id": "2025-288C",
        "meta_epoch": "2025-12-27T06:00:02.000160",
        "meta_mean_motion": 15.5681301,
        "meta_eccentricity": 0.00013233,
        "meta_inclination": 43,
        "meta_ra_of_asc_node": 78.9963,
        "meta_arg_of_pericenter": 270.5942,
        "meta_mean_anomaly": 117.5502,
        "meta_ephemeris_type": 0,
        "meta_classification_type": "U",
        "meta_norad_cat_id": 66961,
        "meta_element_set_no": 999,
        "meta_rev_at_epoch": 416,
        "meta_bstar": -0.030940891,
        "meta_mean_motion_dot": -0.02035363,
        "meta_mean_motion_ddot": 0,
        "tle_line1": "1 66961U 25288C   25361.25002315 -.02035363  00000+0 -30941-1 0  9999",
        "tle_line2": "2 66961  43.0000  78.9963 0001323 270.5942 117.5502 15.56813010  4169"
      },
      "geometry": {
        "type": "Point",
        "coordinates": [
          148.94298262930909,
          41.591692518306104
        ]
      }
    }
  ]
}